{
  "type": "FeatureCollection",
  "features": [
    {
      "type": "Feature",
      "properties": {
        "norad_id": 66989,
        "name": "CZ-4B R/B",
        "group": "last-30-days",
        "lat": 81.60172756525333,
        "lon": 2.0357065028417516,
        "alt_km": 411.4779925580842,
        "timestamp": "2025-12-25T07:00:32.766277+00:00",
        "meta_object_name": "CZ-4B R/B",
        "meta_object_id": "2025-289B",
        "meta_epoch": "2025-12-24T21:28:00.911136",
        "meta_mean_motion": 15.70180887,
        "meta_eccentricity": 0.01396927,
        "meta_inclination": 97.5229,
        "meta_ra_of_asc_node": 65.1345,
        "meta_arg_of_pericenter": 316.8099,
        "meta_mean_anomaly": 42.2272,
        "meta_ephemeris_type": 0,
        "meta_classification_type": "U",
        "meta_norad_cat_id": 66989,
        "meta_element_set_no": 999,
        "meta_rev_at_epoch": 247,
        "meta_bstar": 0.00061213061,
        "meta_mean_motion_dot": 0.00131632,
        "meta_mean_motion_ddot": 7.305834e-06,
        "tle_line1": "1 66989U 25289B   25358.89445499  .00131632  73058-5  61213-3 0  9999",
        "tle_line2": "2 66989  97.5229  65.1345 0139692 316.8099  42.2272 15.70180887  2471"
      },
      "geometry": {
        "type": "Point",
        "coordinates": [
          2.0357065028417516,
          81.60172756525333
        ]
      }
    },
    {
      "type": "Feature",
      "properties": {
        "norad_id": 66990,
        "name": "TJS-22",
        "group": "last-30-days",
        "lat": -0.6698158589315725,
        "lon": -94.3608772960573,
        "alt_km": 35771.829066453116,
        "timestamp": "2025-12-25T07:00:32.766290+00:00",
        "meta_object_name": "TJS-22",
        "meta_object_id": "2025-290A",
        "meta_epoch": "2025-12-24T08:24:23.626080",
        "meta_mean_motion": 1.00271403,
        "meta_eccentricity": 0.00034063,
        "meta_inclination": 1.9593,
        "meta_ra_of_asc_node": 285.0352,
        "meta_arg_of_pericenter": 343.0889,
        "meta_mean_anomaly": 17.5508,
        "meta_ephemeris_type": 0,
        "meta_classification_type": "U",
        "meta_norad_cat_id": 66990,
        "meta_element_set_no": 999,
        "meta_rev_at_epoch": 27,
        "meta_bstar": 0,
        "meta_mean_motion_dot": 1.5e-07,
        "meta_mean_motion_ddot": 0,
        "tle_line1": "1 66990U 25290A   25358.35027345  .00000015  00000+0  00000+0 0  9994",
        "tle_line2": "2 66990   1.9593 285.0352 0003406 343.0889  17.5508  1.00271403   275"
      },
      "geometry": {
        "type": "Point",
        "coordinates": [
          -94.3608772960573,
          -0.6698158589315725
        ]
      }
    },
    {
      "type": "Feature",
      "properties": {
        "norad_id": 66991,
        "name": "CZ-3B R/B",
        "group": "last-30-days",
        "lat": -3.03363362531523,
        "lon": -68.92882897640862,
        "alt_km": 30902.351602880855,
        "timestamp": "2025-12-25T07:00:32.766302+00:00",
        "meta_object_name": "CZ-3B R/B",
        "meta_object_id": "2025-290B",
        "meta_epoch": "2025-12-15T17:23:33.043200",
        "meta_mean_motion": 2.38388611,
        "meta_eccentricity": 0.7240884,
        "meta_inclination": 28.4636,
        "meta_ra_of_asc_node": 300.4666,
        "meta_arg_of_pericenter": 182.7002,
        "meta_mean_anomaly": 168.625,
        "meta_ephemeris_type": 0,
        "meta_classification_type": "U",
        "meta_norad_cat_id": 66991,
        "meta_element_set_no": 999,
        "meta_rev_at_epoch": 16,
        "meta_bstar": 0.00075879,
        "meta_mean_motion_dot": 0.00057911,
        "meta_mean_motion_ddot": -2.0514e-07,
        "tle_line1": "1 66991U 25290B   25349.72468800  .00057911 -20514-6  75879-3 0  9998",
        "tle_line2": "2 66991  28.4636 300.4666 7240884 182.7002 168.6250  2.38388611   165"
      },
      "geometry": {
        "type": "Point",
        "coordinates": [
          -68.92882897640862,
          -3.03363362531523
        ]
      }
    },
    {
      "type": "Feature",
      "properties": {
        "norad_id": 66993,
        "name": "2025-292A",
        "group": "last-30-days",
        "lat": -78.52837926817124,
        "lon": -149.75468845493197,
        "alt_km": 551.7815328696624,
        "timestamp": "2025-12-25T07:00:32.766315+00:00",
        "meta_object_name": "2025-292A",
        "meta_object_id": "2025-292A",
        "meta_epoch": "2025-12-24T21:52:11.568864",
        "meta_mean_motion": 15.045834,
        "meta_eccentricity": 0.00145652,
        "meta_inclination": 97.6497,
        "meta_ra_of_asc_node": 71.3435,
        "meta_arg_of_pericenter": 228.3806,
        "meta_mean_anomaly": 131.6173,
        "meta_ephemeris_type": 0,
        "meta_classification_type": "U",
        "meta_norad_cat_id": 66993,
        "meta_element_set_no": 999,
        "meta_rev_at_epoch": 222,
        "meta_bstar": 0.00031620209,
        "meta_mean_motion_dot": 4.385e-05,
        "meta_mean_motion_ddot": 0,
        "tle_line1": "1 66993U 25292A   25358.91124501  .00004385  00000+0  31620-3 0  9993",
        "tle_line2": "2 66993  97.6497  71.3435 0014565 228.3806 131.6173 15.04583400  2228"
      },
      "geometry": {
        "type": "Point",
        "coordinates": [
          -149.75468845493197,
          -78.52837926817124
        ]
      }
    },
    {
      "type": "Feature",
      "properties": {
        "norad_id": 66994,
        "name": "2025-292B",
        "group": "last-30-days",
        "lat": -80.19755647624746,
        "lon": -159.3557990909253,
        "alt_km": 551.9706624737337,
        "timestamp": "2025-12-25T07:00:32.766328+00:00",
        "meta_object_name": "2025-292B",
        "meta_object_id": "2025-292B",
        "meta_epoch": "2025-12-24T21:51:33.840576",
        "meta_mean_motion": 15.04631837,
        "meta_eccentricity": 0.00143512,
        "meta_inclination": 97.6506,
        "meta_ra_of_asc_node": 71.3455,
        "meta_arg_of_pericenter": 228.7248,
        "meta_mean_anomaly": 131.2743,
        "meta_ephemeris_type": 0,
        "meta_classification_type": "U",
        "meta_norad_cat_id": 66994,
        "meta_element_set_no": 999,
        "meta_rev_at_epoch": 222,
        "meta_bstar": 0.00035833392,
        "meta_mean_motion_dot": 4.984e-05,
        "meta_mean_motion_ddot": 0,
        "tle_line1": "1 66994U 25292B   25358.91080834  .00004984  00000+0  35833-3 0  9999",
        "tle_line2": "2 66994  97.6506  71.3455 0014351 228.7248 131.2743 15.04631837  2226"
      },
      "geometry": {
        "type": "Point",
        "coordinates": [
          -159.3557990909253,
          -80.19755647624746
        ]
      }
    },
    {
      "type": "Feature",
      "properties": {
        "norad_id": 66995,
        "name": "2025-292C",
        "group": "last-30-days",
        "lat": -80.78772434301682,
        "lon": -164.24348524000416,
        "alt_km": 551.7756843423576,
        "timestamp": "2025-12-25T07:00:32.766349+00:00",
        "meta_object_name": "2025-292C",
        "meta_object_id": "2025-292C",
        "meta_epoch": "2025-12-24T21:51:18.566784",
        "meta_mean_motion": 15.04664082,
        "meta_eccentricity": 0.00146462,
        "meta_inclination": 97.6496,
        "meta_ra_of_asc_node": 71.3442,
        "meta_arg_of_pericenter": 229.0815,
        "meta_mean_anomaly": 130.9143,
        "meta_ephemeris_type": 0,
        "meta_classification_type": "U",
        "meta_norad_cat_id": 66995,
        "meta_element_set_no": 999,
        "meta_rev_at_epoch": 222,
        "meta_bstar": 0.0004078832,
        "meta_mean_motion_dot": 5.688e-05,
        "meta_mean_motion_ddot": 0,
        "tle_line1": "1 66995U 25292C   25358.91063156  .00005688  00000+0  40788-3 0  9995",
        "tle_line2": "2 66995  97.6496  71.3442 0014646 229.0815 130.9143 15.04664082  2220"
      },
      "geometry": {
        "type": "Point",
        "coordinates": [
          -164.24348524000416,
          -80.78772434301682
        ]
      }
    },
    {
      "type": "Feature",
      "properties": {
        "norad_id": 66996,
        "name": "2025-292D",
        "group": "last-30-days",
        "lat": -81.71106419017792,
        "lon": -175.57140924596294,
        "alt_km": 552.1761697989232,
        "timestamp": "2025-12-25T07:00:32.766360+00:00",
        "meta_object_name": "2025-292D",
        "meta_object_id": "2025-292D",
        "meta_epoch": "2025-12-24T21:50:47.537088",
        "meta_mean_motion": 15.04675873,
        "meta_eccentricity": 0.00137646,
        "meta_inclination": 97.6492,
        "meta_ra_of_asc_node": 71.3437,
        "meta_arg_of_pericenter": 231.6337,
        "meta_mean_anomaly": 128.3653,
        "meta_ephemeris_type": 0,
        "meta_classification_type": "U",
        "meta_norad_cat_id": 66996,
        "meta_element_set_no": 999,
        "meta_rev_at_epoch": 222,
        "meta_bstar": 0.00027926132,
        "meta_mean_motion_dot": 3.874e-05,
        "meta_mean_motion_ddot": 0,
        "tle_line1": "1 66996U 25292D   25358.91027242  .00003874  00000+0  27926-3 0  9996",
        "tle_line2": "2 66996  97.6492  71.3437 0013764 231.6337 128.3653 15.04675873  2226"
      },
      "geometry": {
        "type": "Point",
        "coordinates": [
          -175.57140924596294,
          -81.71106419017792
        ]
      }
    }
  ]
}